ORBCOMM FM05            
1 25117U 97084F   25333.59000433  .00001671  00000+0  49825-3 0  9999
2 25117  45.0147 293.5330 0004152 320.8921  39.1630 14.46628159464553
ORBCOMM FM06            
1 25118U 97084G   25333.24547661  .00001925  00000+0  56622-3 0  9996
2 25118  45.0138 294.7309 0003112 315.3885 177.0745 14.46786482465426
ORBCOMM FM07            
1 25119U 97084H   25333.57779174  .00001716  00000+0  50890-3 0  9998
2 25119  45.0134 293.8850 0004999 320.0049  40.0434 14.46799371465462
ORBCOMM FM03            
1 25158U 98007B   25333.65114321  .00001310  00000+0  50027-3 0  9995
2 25158 107.9646 115.5892 0045836 316.6612  43.0927 14.34967014447771
ORBCOMM FM04            
1 25159U 98007C   25333.67678823  .00001186  00000+0  45601-3 0  9993
2 25159 107.9638 118.9750 0041734 313.7407  46.0281 14.35212440447960
ORBCOMM FM17            
1 25413U 98046A   25333.64401959  .00000714  00000+0  29479-3 0  9991
2 25413  44.9924 196.5243 0003074 338.0334  22.0381 14.35492567426944
ORBCOMM FM18            
1 25414U 98046B   25333.74626053  .00001395  00000+0  49269-3 0  9992
2 25414  44.9917 108.9382 0003447  48.7903 311.3242 14.39087282428095
ORBCOMM FM19            
1 25415U 98046C   25333.12244961  .00001443  00000+0  50981-3 0  9996
2 25415  44.9927 114.1540 0002241  42.6582 126.9027 14.38906043427958
